NORAD_CAT_ID,OBJECT_NAME,OBJECT_TYPE,EPOCH,MEAN_MOTION,ECCENTRICITY,INCLINATION,RA_OF_ASC_NODE,ARG_OF_PERICENTER,MEAN_ANOMALY,BSTAR,MEAN_MOTION_DOT,MEAN_MOTION_DDOT,TLE_LINE0,TLE_LINE1,TLE_LINE2,SEMIMAJOR_AXIS,PERIOD,APOGEE,PERIGEE,DECAYED
53155.0,STARLINK-4088,PAYLOAD,2024-01-01 15:54:47,15.08839795,0.000108,53.2167,146.6019,68.0964,292.0143,0.00029899,4.474e-05,0.0,0 STARLINK-4088,1 53155U 22083Z   24001.66305227  .00004474  00000-0  29899-3 0  9991,2 53155  53.2167 146.6019 0001080  68.0964 292.0143 15.08839795 81515,6917.881,95.438,540.493,538.999,0.0
53155.0,STARLINK-4088,PAYLOAD,2024-01-02 09:24:01,15.08856142,0.0001293,53.2173,143.3308,57.4355,302.6762,0.00022762,3.338e-05,0.0,0 STARLINK-4088,1 53155U 22083Z   24002.39168501  .00003338  00000-0  22762-3 0  9994,2 53155  53.2173 143.3308 0001293  57.4355 302.6762 15.08856142 81621,6917.831,95.437,540.591,538.802,0.0
53155.0,STARLINK-4088,PAYLOAD,2024-01-02 14:10:11,15.08860997,0.0001288,53.2163,142.4389,57.9825,302.1293,0.00033754,5.091e-05,0.0,0 STARLINK-4088,1 53155U 22083Z   24002.59040530  .00005091  00000-0  33754-3 0  9998,2 53155  53.2163 142.4389 0001288  57.9825 302.1293 15.08860997 81661,6917.816,95.436,540.572,538.79,0.0
53155.0,STARLINK-4088,PAYLOAD,2024-01-02 15:45:34,15.08863403,0.0001313,53.2163,142.1415,58.4717,301.6404,0.00036984,5.607e-05,0.0,0 STARLINK-4088,1 53155U 22083Z   24002.65664376  .00005607  00000-0  36984-3 0  9996,2 53155  53.2163 142.1415 0001313  58.4717 301.6404 15.08863403 81677,6917.809,95.436,540.582,538.766,0.0
53155.0,STARLINK-4088,PAYLOAD,2024-01-03 12:25:35,15.08844078,0.0001151,53.2163,138.2752,50.7704,309.339,-9.5554e-05,-1.808e-05,0.0,0 STARLINK-4088,1 53155U 22083Z   24003.51776716 -.00001808  00000-0 -95554-4 0  9994,2 53155  53.2163 138.2752 0001151  50.7704 309.3390 15.08844078 81797,6917.868,95.437,540.529,538.937,0.0
53155.0,STARLINK-4088,PAYLOAD,2024-01-03 14:00:58,15.08844242,0.0001167,53.2167,137.9772,83.0509,277.0616,-9.9319e-05,-1.868e-05,0.0,0 STARLINK-4088,1 53155U 22083Z   24003.58400592 -.00001868  00000-0 -99319-4 0  9996,2 53155  53.2167 137.9772 0001167  83.0509 277.0616 15.08844242 81816,6917.867,95.437,540.54,538.925,0.0
53155.0,STARLINK-4088,PAYLOAD,2024-01-03 15:36:21,15.0884222,0.0001151,53.2164,137.6798,78.0078,282.1044,-0.00012485,-2.274e-05,0.0,0 STARLINK-4088,1 53155U 22083Z   24003.65024675 -.00002274  00000-0 -12485-3 0  9998,2 53155  53.2164 137.6798 0001151  78.0078 282.1044 15.08842220 81823,6917.874,95.437,540.535,538.942,0.0
53155.0,STARLINK-4088,PAYLOAD,2024-01-04 13:51:44,15.08847005,0.0001093,53.2152,133.5119,72.7887,287.3225,-6.885e-05,-1.384e-05,0.0,0 STARLINK-4088,1 53155U 22083Z   24004.57760128 -.00001384  00000-0 -68850-4 0  9999,2 53155  53.2152 133.5119 0001093  72.7887 287.3225 15.08847005 81965,6917.859,95.437,540.48,538.968,0.0
53155.0,STARLINK-4088,PAYLOAD,2024-01-05 12:07:09,15.08834045,0.0001245,53.2156,129.3523,98.0911,262.0222,6.3837e-05,7.28e-06,0.0,0 STARLINK-4088,1 53155U 22083Z   24005.50496878  .00000728  00000-0  63837-4 0  9990,2 53155  53.2156 129.3523 0001245  98.0911 262.0222 15.08834045 82091,6917.899,95.438,540.625,538.902,0.0
53155.0,STARLINK-4088,PAYLOAD,2024-01-05 13:42:32,15.08831741,0.0001127,53.2165,129.0561,76.9043,283.2075,9.4449e-05,1.215e-05,0.0,0 STARLINK-4088,1 53155U 22083Z   24005.57121306  .00001215  00000-0  94449-4 0  9993,2 53155  53.2165 129.0561 0001127  76.9043 283.2075 15.08831741 82114,6917.906,95.438,540.55,538.991,0.0
53155.0,STARLINK-4088,PAYLOAD,2024-01-05 16:53:18,15.08834705,0.0001119,53.2168,128.461,81.5147,278.5972,0.00011282,1.508e-05,0.0,0 STARLINK-4088,1 53155U 22083Z   24005.70369151  .00001508  00000-0  11282-3 0  9998,2 53155  53.2168 128.4610 0001119  81.5147 278.5972 15.08834705 82131,6917.897,95.438,540.536,538.987,0.0
53155.0,STARLINK-4088,PAYLOAD,2024-01-06 11:57:56,15.08843785,0.0001096,53.2165,124.8924,81.0591,279.0525,3.6345e-05,2.91e-06,0.0,0 STARLINK-4088,1 53155U 22083Z   24006.49857008  .00000291  00000-0  36345-4 0  9994,2 53155  53.2165 124.8924 0001096  81.0591 279.0525 15.08843785 82259,6917.869,95.437,540.492,538.976,0.0
53155.0,STARLINK-4088,PAYLOAD,2024-01-06 18:19:30,15.08814553,0.0001523,53.2156,123.7026,83.7482,276.3684,0.0011763,0.00018469,0.0,0 STARLINK-4088,1 53155U 22083Z   24006.76354544  .00018469  00000-0  11763-2 0  9992,2 53155  53.2156 123.7026 0001523  83.7482 276.3684 15.08814553 82283,6917.958,95.439,540.877,538.77,0.0
53155.0,STARLINK-4088,PAYLOAD,2024-01-07 11:48:43,15.08840129,0.0001352,53.2158,120.4328,86.6741,273.4405,0.00011893,1.605e-05,0.0,0 STARLINK-4088,1 53155U 22083Z   24007.49217099  .00001605  00000-0  11893-3 0  9995,2 53155  53.2158 120.4328 0001352  86.6741 273.4405 15.08840129 82393,6917.88,95.438,540.68,538.81,0.0
53155.0,STARLINK-4088,PAYLOAD,2024-01-07 13:24:06,15.08841916,0.0001303,53.2157,120.1348,101.4444,258.6694,0.00013346,1.837e-05,0.0,0 STARLINK-4088,1 53155U 22083Z   24007.55840950  .00001837  00000-0  13346-3 0  9992,2 53155  53.2157 120.1348 0001303 101.4444 258.6694 15.08841916 82416,6917.875,95.437,540.641,538.838,0.0
53155.0,STARLINK-4088,PAYLOAD,2024-01-07 14:59:29,15.08843877,0.0001249,53.2158,119.8375,97.1473,262.9661,0.00017393,2.482e-05,0.0,0 STARLINK-4088,1 53155U 22083Z   24007.62464899  .00002482  00000-0  17393-3 0  9997,2 53155  53.2158 119.8375 0001249  97.1473 262.9661 15.08843877 82425,6917.869,95.437,540.598,538.869,0.0
53155.0,STARLINK-4088,PAYLOAD,2024-01-08 13:14:53,15.08851917,0.0001466,53.2164,115.6768,70.8019,289.3131,0.00018293,2.625e-05,0.0,0 STARLINK-4088,1 53155U 22083Z   24008.55200629  .00002625  00000-0  18293-3 0  9998,2 53155  53.2164 115.6768 0001466  70.8019 289.3131 15.08851917 82561,6917.844,95.437,540.723,538.695,0.0
53155.0,STARLINK-4088,PAYLOAD,2024-01-08 14:50:16,15.08852631,0.0001586,53.2164,115.3803,66.5146,293.6013,0.0002826,4.214e-05,0.0,0 STARLINK-4088,1 53155U 22083Z   24008.61824662  .00004214  00000-0  28260-3 0  9995,2 53155  53.2164 115.3803 0001586  66.5146 293.6013 15.08852631 82565,6917.842,95.437,540.804,538.61,0.0
53155.0,STARLINK-4088,PAYLOAD,2024-01-09 11:30:17,15.08844326,0.0001481,53.2172,111.514,76.7532,283.3625,0.0001378,1.906e-05,0.0,0 STARLINK-4088,1 53155U 22083Z   24009.47936890  .00001906  00000-0  13780-3 0  9993,2 53155  53.2172 111.5140 0001481  76.7532 283.3625 15.08844326 82693,6917.867,95.437,540.757,538.708,0.0
53155.0,STARLINK-4088,PAYLOAD,2024-01-09 13:05:40,15.08845254,0.0001445,53.2174,111.2167,81.8083,278.3073,0.00018693,2.689e-05,0.0,0 STARLINK-4088,1 53155U 22083Z   24009.54560804  .00002689  00000-0  18693-3 0  9996,2 53155  53.2174 111.2167 0001445  81.8083 278.3073 15.08845254 82714,6917.864,95.437,540.729,538.73,0.0
53155.0,STARLINK-4088,PAYLOAD,2024-01-10 11:21:04,15.08841175,0.0001466,53.2166,107.0546,80.8184,279.2974,-4.5466e-06,-3.6e-06,0.0,0 STARLINK-4088,1 53155U 22083Z   24010.47297140 -.00000360  00000-0 -45466-5 0  9996,2 53155  53.2166 107.0546 0001466  80.8184 279.2974 15.08841175 82845,6917.877,95.437,540.756,538.728,0.0
53155.0,STARLINK-4088,PAYLOAD,2024-01-11 11:11:53,15.08808466,0.0001915,53.217,102.5885,89.7845,270.3366,0.0014494,0.00022835,0.0,0 STARLINK-4088,1 53155U 22083Z   24011.46659106  .00022835  00000-0  14494-2 0  9993,2 53155  53.2170 102.5885 0001915  89.7845 270.3366 15.08808466 82996,6917.977,95.44,541.167,538.517,0.0
53155.0,STARLINK-4088,PAYLOAD,2024-01-11 12:47:17,15.08792292,0.0002046,53.2173,102.2916,84.0145,276.1081,0.0020957,0.00033179,0.0,0 STARLINK-4088,1 53155U 22083Z   24011.53284368  .00033179  00000-0  20957-2 0  9999,2 53155  53.2173 102.2916 0002046  84.0145 276.1081 15.08792292 83019,6918.026,95.441,541.307,538.476,0.0
53155.0,STARLINK-4088,PAYLOAD,2024-01-11 15:58:01,15.08842987,0.0001646,53.2174,101.6962,91.3341,268.7839,0.00057236,8.834e-05,0.0,0 STARLINK-4088,1 53155U 22083Z   24011.66529148  .00008834  00000-0  57236-3 0  9992,2 53155  53.2174 101.6962 0001646  91.3341 268.7839 15.08842987 83024,6917.871,95.437,540.875,538.598,0.0
53155.0,STARLINK-4088,PAYLOAD,2024-01-12 11:02:38,15.08839818,0.0001484,53.2169,98.1228,90.7041,269.4121,4.9606e-05,5.02e-06,0.0,0 STARLINK-4088,1 53155U 22083Z   24012.46017077  .00000502  00000-0  49606-4 0  9991,2 53155  53.2169  98.1228 0001484  90.7041 269.4121 15.08839818 83147,6917.881,95.438,540.773,538.719,0.0
53155.0,STARLINK-4088,PAYLOAD,2024-01-12 12:38:01,15.08840875,0.0001472,53.2168,97.8253,81.8875,278.2284,7.9043e-05,9.7e-06,0.0,0 STARLINK-4088,1 53155U 22083Z   24012.52641111  .00000970  00000-0  79043-4 0  9997,2 53155  53.2168  97.8253 0001472  81.8875 278.2284 15.08840875 83168,6917.878,95.437,540.761,538.724,0.0
53155.0,STARLINK-4088,PAYLOAD,2024-01-13 10:53:26,15.08840643,0.0001685,53.2176,93.6704,98.2451,261.8733,0.00010316,1.354e-05,0.0,0 STARLINK-4088,1 53155U 22083Z   24013.45377474  .00001354  00000-0  10316-3 0  9992,2 53155  53.2176  93.6704 0001685  98.2451 261.8733 15.08840643 83306,6917.878,95.438,540.909,538.578,0.0
53155.0,STARLINK-4088,PAYLOAD,2024-01-14 04:22:40,15.08838652,0.0001686,53.217,90.4002,99.3273,260.791,0.00019005,2.738e-05,0.0,0 STARLINK-4088,1 53155U 22083Z   24014.18241855  .00002738  00000-0  19005-3 0  9997,2 53155  53.2170  90.4002 0001686  99.3273 260.7910 15.08838652 83404,6917.885,95.438,540.916,538.583,0.0
53155.0,STARLINK-4088,PAYLOAD,2024-01-14 12:19:36,15.08846376,0.0001544,53.2165,88.9137,79.7003,280.4164,0.0002858,4.264e-05,0.0,0 STARLINK-4088,1 53155U 22083Z   24014.51361689  .00004264  00000-0  28580-3 0  9996,2 53155  53.2165  88.9137 0001544  79.7003 280.4164 15.08846376 83463,6917.861,95.437,540.794,538.658,0.0
53155.0,STARLINK-4088,PAYLOAD,2024-01-15 12:10:23,15.08851055,0.0001621,53.2161,84.4542,78.5112,281.6062,0.00031169,4.677e-05,0.0,0 STARLINK-4088,1 53155U 22083Z   24015.50721472  .00004677  00000-0  31169-3 0  9991,2 53155  53.2161  84.4542 0001621  78.5112 281.6062 15.08851055 83611,6917.847,95.437,540.833,538.59,0.0
